{"type": "FeatureCollection", "features": [ {"type": "Feature", "properties": {"norad_id": 37996, "name": "COSMOS 2251 DEB", "group": "cosmos-2251-debris", "lat": 47.513652089044264, "lon": -141.26263006444853, "alt_km": 875.0200065829695, "timestamp": "2025-12-14T05:42:18.860888+00:00", "meta": {"OBJECT_NAME": "COSMOS 2251 DEB", "OBJECT_ID": "1993-036BQX", "EPOCH": "2025-11-16T18:35:00.708864", "MEAN_MOTION": 14.09591608, "ECCENTRICITY": 0.02219827, "INCLINATION": 74.0658, "RA_OF_ASC_NODE": 248.8308, "ARG_OF_PERICENTER": 5.4709, "MEAN_ANOMALY": 354.8776, "EPHEMERIS_TYPE": 0, "CLASSIFICATION_TYPE": "U", "NORAD_CAT_ID": 37996, "ELEMENT_SET_NO": 999, "REV_AT_EPOCH": 55769, "BSTAR": 0.0096790999, "MEAN_MOTION_DOT": 0.00021331, "MEAN_MOTION_DDOT": 0}, "tle": {"line1": "1 37996U 93036BQX 25320.77431376  .00021331  00000+0  96791-2 0  9998", "line2": "2 37996  74.0658 248.8308 0221982   5.4709 354.8776 14.09591608557693"}}, "geometry": {"type": "Point", "coordinates": [-141.26263006444853, 47.513652089044264]}}, {"type": "Feature", "properties": {"norad_id": 37998, "name": "COSMOS 2251 DEB", "group": "cosmos-2251-debris", "lat": -43.581255616087084, "lon": 68.12263601400058, "alt_km": 744.1827117023477, "timestamp": "2025-12-14T05:42:18.860898+00:00", "meta": {"OBJECT_NAME": "COSMOS 2251 DEB", "OBJECT_ID": "1993-036BQZ", "EPOCH": "2025-12-07T01:34:33.386016", "MEAN_MOTION": 14.45444842, "ECCENTRICITY": 0.00199405, "INCLINATION": 74.0387, "RA_OF_ASC_NODE": 245.6796, "ARG_OF_PERICENTER": 320.6712, "MEAN_ANOMALY": 39.2997, "EPHEMERIS_TYPE": 0, "CLASSIFICATION_TYPE": "U", "NORAD_CAT_ID": 37998, "ELEMENT_SET_NO": 999, "REV_AT_EPOCH": 64205, "BSTAR": 0.00093558552, "MEAN_MOTION_DOT": 3.277e-05, "MEAN_MOTION_DDOT": 0}, "tle": {"line1": "1 37998U 93036BQZ 25341.06566419  .00003277  00000+0  93559-3 0  9991", "line2": "2 37998  74.0387 245.6796 0019940 320.6712  39.2997 14.45444842642056"}}, "geometry": {"type": "Point", "coordinates": [68.12263601400058, -43.581255616087084]}}, {"type": "Feature", "properties": {"norad_id": 38001, "name": "COSMOS 2251 DEB", "group": "cosmos-2251-debris", "lat": 4.9274784369891, "lon": 130.79339836423978, "alt_km": 631.2382592447302, "timestamp": "2025-12-14T05:42:18.860908+00:00", "meta": {"OBJECT_NAME": "COSMOS 2251 DEB", "OBJECT_ID": "1993-036BRC", "EPOCH": "2025-12-12T20:16:35.165280", "MEAN_MOTION": 14.79078189, "ECCENTRICITY": 0.00654432, "INCLINATION": 74.0015, "RA_OF_ASC_NODE": 132.1204, "ARG_OF_PERICENTER": 281.6012, "MEAN_ANOMALY": 229.3519, "EPHEMERIS_TYPE": 0, "CLASSIFICATION_TYPE": "U", "NORAD_CAT_ID": 38001, "ELEMENT_SET_NO": 999, "REV_AT_EPOCH": 74709, "BSTAR": 0.0011942627, "MEAN_MOTION_DOT": 9.141e-05, "MEAN_MOTION_DDOT": 0}, "tle": {"line1": "1 38001U 93036BRC 25346.84485145  .00009141  00000+0  11943-2 0  9996", "line2": "2 38001  74.0015 132.1204 0065443 281.6012 229.3519 14.79078189747098"}}, "geometry": {"type": "Point", "coordinates": [130.79339836423978, 4.9274784369891]}}, {"type": "Feature", "properties": {"norad_id": 38006, "name": "COSMOS 2251 DEB", "group": "cosmos-2251-debris", "lat": 26.61580894186353, "lon": 43.57081886095178, "alt_km": 701.0791462478892, "timestamp": "2025-12-14T05:42:18.860919+00:00", "meta": {"OBJECT_NAME": "COSMOS 2251 DEB", "OBJECT_ID": "1993-036BRH", "EPOCH": "2025-12-10T03:36:37.956384", "MEAN_MOTION": 14.45867865, "ECCENTRICITY": 0.00758537, "INCLINATION": 73.8744, "RA_OF_ASC_NODE": 42.933, "ARG_OF_PERICENTER": 348.3853, "MEAN_ANOMALY": 11.555, "EPHEMERIS_TYPE": 0, "CLASSIFICATION_TYPE": "U", "NORAD_CAT_ID": 38006, "ELEMENT_SET_NO": 999, "REV_AT_EPOCH": 62922, "BSTAR": 0.0047338847, "MEAN_MOTION_DOT": 0.00017443, "MEAN_MOTION_DDOT": 0}, "tle": {"line1": "1 38006U 93036BRH 25344.15043931  .00017443  00000+0  47339-2 0  9998", "line2": "2 38006  73.8744  42.9330 0075853 348.3853  11.5550 14.45867865629227"}}, "geometry": {"type": "Point", "coordinates": [43.57081886095178, 26.61580894186353]}}, {"type": "Feature", "properties": {"norad_id": 38054, "name": "COSMOS 2251 DEB", "group": "cosmos-2251-debris", "lat": 51.446130897749285, "lon": -75.48828360878925, "alt_km": 1286.738780017542, "timestamp": "2025-12-14T05:42:18.860929+00:00", "meta": {"OBJECT_NAME": "COSMOS 2251 DEB", "OBJECT_ID": "1993-036BRL", "EPOCH": "2025-12-06T19:35:06.065952", "MEAN_MOTION": 13.62293123, "ECCENTRICITY": 0.0360398, "INCLINATION": 73.9587, "RA_OF_ASC_NODE": 275.4844, "ARG_OF_PERICENTER": 254.7432, "MEAN_ANOMALY": 133.9151, "EPHEMERIS_TYPE": 0, "CLASSIFICATION_TYPE": "U", "NORAD_CAT_ID": 38054, "ELEMENT_SET_NO": 999, "REV_AT_EPOCH": 67099, "BSTAR": 0.0049752628, "MEAN_MOTION_DOT": 5.934e-05, "MEAN_MOTION_DDOT": 0}, "tle": {"line1": "1 38054U 93036BRL 25340.81604243  .00005934  00000+0  49753-2 0  9993", "line2": "2 38054  73.9587 275.4844 0360398 254.7432 133.9151 13.62293123670997"}}, "geometry": {"type": "Point", "coordinates": [-75.48828360878925, 51.446130897749285]}}, {"type": "Feature", "properties": {"norad_id": 38055, "name": "COSMOS 2251 DEB", "group": "cosmos-2251-debris", "lat": -58.75600444028834, "lon": 52.02681714575002, "alt_km": 643.7913795033346, "timestamp": "2025-12-14T05:42:18.860939+00:00", "meta": {"OBJECT_NAME": "COSMOS 2251 DEB", "OBJECT_ID": "1993-036BRM", "EPOCH": "2025-12-11T09:07:57.721152", "MEAN_MOTION": 14.76955256, "ECCENTRICITY": 0.00657701, "INCLINATION": 74.0089, "RA_OF_ASC_NODE": 209.4259, "ARG_OF_PERICENTER": 337.2903, "MEAN_ANOMALY": 200.444, "EPHEMERIS_TYPE": 0, "CLASSIFICATION_TYPE": "U", "NORAD_CAT_ID": 38055, "ELEMENT_SET_NO": 999, "REV_AT_EPOCH": 60662, "BSTAR": 0.0014257024, "MEAN_MOTION_DOT": 0.00010385, "MEAN_MOTION_DDOT": 0}, "tle": {"line1": "1 38055U 93036BRM 25345.38052918  .00010385  00000+0  14257-2 0  9994", "line2": "2 38055  74.0089 209.4259 0065770 337.2903 200.4440 14.76955256606628"}}, "geometry": {"type": "Point", "coordinates": [52.02681714575002, -58.75600444028834]}}, {"type": "Feature", "properties": {"norad_id": 38060, "name": "COSMOS 2251 DEB", "group": "cosmos-2251-debris", "lat": 35.82805727949432, "lon": -55.644412521437886, "alt_km": 636.9371700251659, "timestamp": "2025-12-14T05:42:18.860949+00:00", "meta": {"OBJECT_NAME": "COSMOS 2251 DEB", "OBJECT_ID": "1993-036BRS", "EPOCH": "2025-12-11T05:22:06.825504", "MEAN_MOTION": 14.63841303, "ECCENTRICITY": 0.00580419, "INCLINATION": 74.0431, "RA_OF_ASC_NODE": 298.2163, "ARG_OF_PERICENTER": 44.676, "MEAN_ANOMALY": 315.9062, "EPHEMERIS_TYPE": 0, "CLASSIFICATION_TYPE": "U", "NORAD_CAT_ID": 38060, "ELEMENT_SET_NO": 999, "REV_AT_EPOCH": 71942, "BSTAR": 0.00092465515, "MEAN_MOTION_DOT": 4.921e-05, "MEAN_MOTION_DDOT": 0}, "tle": {"line1": "1 38060U 93036BRS 25345.22369011  .00004921  00000+0  92466-3 0  9996", "line2": "2 38060  74.0431 298.2163 0058041  44.6760 315.9062 14.63841303719426"}}, "geometry": {"type": "Point", "coordinates": [-55.644412521437886, 35.82805727949432]}}, {"type": "Feature", "properties": {"norad_id": 38062, "name": "COSMOS 2251 DEB", "group": "cosmos-2251-debris", "lat": 6.450222419845277, "lon": 105.58675037383857, "alt_km": 588.2015279860361, "timestamp": "2025-12-14T05:42:18.860960+00:00", "meta": {"OBJECT_NAME": "COSMOS 2251 DEB", "OBJECT_ID": "1993-036BRU", "EPOCH": "2025-12-12T07:01:37.512192", "MEAN_MOTION": 14.94806818, "ECCENTRICITY": 0.00123829, "INCLINATION": 74.0077, "RA_OF_ASC_NODE": 291.3712, "ARG_OF_PERICENTER": 60.6656, "MEAN_ANOMALY": 90.0551, "EPHEMERIS_TYPE": 0, "CLASSIFICATION_TYPE": "U", "NORAD_CAT_ID": 38062, "ELEMENT_SET_NO": 999, "REV_AT_EPOCH": 63023, "BSTAR": 0.0035861639, "MEAN_MOTION_DOT": 0.00039272, "MEAN_MOTION_DDOT": 0}, "tle": {"line1": "1 38062U 93036BRU 25346.29279528  .00039272  00000+0  35862-2 0  9992", "line2": "2 38062  74.0077 291.3712 0012382  60.6656  90.0551 14.94806818630239"}}, "geometry": {"type": "Point", "coordinates": [105.58675037383857, 6.450222419845277]}}, {"type": "Feature", "properties": {"norad_id": 38064, "name": "COSMOS 2251 DEB", "group": "cosmos-2251-debris", "lat": -59.59683909995662, "lon": -29.47802506262887, "alt_km": 678.3456102175751, "timestamp": "2025-12-14T05:42:18.860970+00:00", "meta": {"OBJECT_NAME": "COSMOS 2251 DEB", "OBJECT_ID": "1993-036BRW", "EPOCH": "2025-12-13T15:23:53.292192", "MEAN_MOTION": 14.563119, "ECCENTRICITY": 0.00473908, "INCLINATION": 74.0218, "RA_OF_ASC_NODE": 122.4242, "ARG_OF_PERICENTER": 241.8687, "MEAN_ANOMALY": 117.7684, "EPHEMERIS_TYPE": 0, "CLASSIFICATION_TYPE": "U", "NORAD_CAT_ID": 38064, "ELEMENT_SET_NO": 999, "REV_AT_EPOCH": 71878, "BSTAR": 0.0012344329, "MEAN_MOTION_DOT": 5.526e-05, "MEAN_MOTION_DDOT": 0}, "tle": {"line1": "1 38064U 93036BRW 25347.64158903  .00005526  00000+0  12344-2 0  9992", "line2": "2 38064  74.0218 122.4242 0047390 241.8687 117.7684 14.56311900718786"}}, "geometry": {"type": "Point", "coordinates": [-29.47802506262887, -59.59683909995662]}}, {"type": "Feature", "properties": {"norad_id": 38067, "name": "COSMOS 2251 DEB", "group": "cosmos-2251-debris", "lat": -64.46920835802771, "lon": 128.5098847340865, "alt_km": 744.4869395301257, "timestamp": "2025-12-14T05:42:18.860980+00:00", "meta": {"OBJECT_NAME": "COSMOS 2251 DEB", "OBJECT_ID": "1993-036BRZ", "EPOCH": "2025-12-13T12:56:02.220576", "MEAN_MOTION": 14.61132986, "ECCENTRICITY": 0.00693335, "INCLINATION": 74.0176, "RA_OF_ASC_NODE": 272.9737, "ARG_OF_PERICENTER": 60.458, "MEAN_ANOMALY": 115.2225, "EPHEMERIS_TYPE": 0, "CLASSIFICATION_TYPE": "U", "NORAD_CAT_ID": 38067, "ELEMENT_SET_NO": 999, "REV_AT_EPOCH": 62567, "BSTAR": 0.00062887252, "MEAN_MOTION_DOT": 3.171e-05, "MEAN_MOTION_DDOT": 0}, "tle": {"line1": "1 38067U 93036BRZ 25347.53891459  .00003171  00000+0  62887-3 0  9995", "line2": "2 38067  74.0176 272.9737 0069333  60.4580 115.2225 14.61132986625670"}}, "geometry": {"type": "Point", "coordinates": [128.5098847340865, -64.46920835802771]}}]}